TEVEL2-4                
1 63213U 25052D   26068.69417973  .00020990  00000+0  70363-3 0  9998
2 63213  97.4009 325.1237 0004733  95.3468 264.8313 15.30925813 54879
STARLINK-33534          
1 63499U 25071G   26068.45968190  .00015903  00000+0  54807-3 0  9994
2 63499  53.1591 141.0654 0001270  89.8748 270.2398 15.30191318 52710
